{
  "type": "FeatureCollection",
  "features": [
    {
      "type": "Feature",
      "properties": {
        "norad_id": 38250,
        "name": "BEIDOU-2 M3 (C11)",
        "group": "beidou",
        "lat": 16.318029946057113,
        "lon": -37.90741006158424,
        "alt_km": 21542.624316380225,
        "timestamp": "2025-12-26T20:30:46.173276+00:00",
        "meta_object_name": "BEIDOU-2 M3 (C11)",
        "meta_object_id": "2012-018A",
        "meta_epoch": "2025-12-26T06:54:56.796768",
        "meta_mean_motion": 1.86230094,
        "meta_eccentricity": 0.002406,
        "meta_inclination": 55.9085,
        "meta_ra_of_asc_node": 310.7027,
        "meta_arg_of_pericenter": 275.5278,
        "meta_mean_anomaly": 84.2034,
        "meta_ephemeris_type": 0,
        "meta_classification_type": "U",
        "meta_norad_cat_id": 38250,
        "meta_element_set_no": 999,
        "meta_rev_at_epoch": 9272,
        "meta_bstar": 0,
        "meta_mean_motion_dot": -5.6e-07,
        "meta_mean_motion_ddot": 0,
        "tle_line1": "1 38250U 12018A   25360.28815737 -.00000056  00000+0  00000+0 0  9997",
        "tle_line2": "2 38250  55.9085 310.7027 0024060 275.5278  84.2034  1.86230094 92724"
      },
      "geometry": {
        "type": "Point",
        "coordinates": [
          -37.90741006158424,
          16.318029946057113
        ]
      }
    },
    {
      "type": "Feature",
      "properties": {
        "norad_id": 38251,
        "name": "BEIDOU-2 M4 (C12)",
        "group": "beidou",
        "lat": 48.73589568807344,
        "lon": 0.6116653677056355,
        "alt_km": 21557.264676813113,
        "timestamp": "2025-12-26T20:30:46.173286+00:00",
        "meta_object_name": "BEIDOU-2 M4 (C12)",
        "meta_object_id": "2012-018B",
        "meta_epoch": "2025-12-26T05:17:08.086272",
        "meta_mean_motion": 1.86229697,
        "meta_eccentricity": 0.00151679,
        "meta_inclination": 55.8099,
        "meta_ra_of_asc_node": 309.9329,
        "meta_arg_of_pericenter": 279.7877,
        "meta_mean_anomaly": 80.0472,
        "meta_ephemeris_type": 0,
        "meta_classification_type": "U",
        "meta_norad_cat_id": 38251,
        "meta_element_set_no": 999,
        "meta_rev_at_epoch": 9272,
        "meta_bstar": 0,
        "meta_mean_motion_dot": -5.5e-07,
        "meta_mean_motion_ddot": 0,
        "tle_line1": "1 38251U 12018B   25360.22023248 -.00000055  00000+0  00000+0 0  9999",
        "tle_line2": "2 38251  55.8099 309.9329 0015167 279.7877  80.0472  1.86229697 92720"
      },
      "geometry": {
        "type": "Point",
        "coordinates": [
          0.6116653677056355,
          48.73589568807344
        ]
      }
    },
    {
      "type": "Feature",
      "properties": {
        "norad_id": 38775,
        "name": "BEIDOU-2 M6 (C14)",
        "group": "beidou",
        "lat": -54.882429901773946,
        "lon": -40.55300256013424,
        "alt_km": 21530.704174779476,
        "timestamp": "2025-12-26T20:30:46.173296+00:00",
        "meta_object_name": "BEIDOU-2 M6 (C14)",
        "meta_object_id": "2012-050B",
        "meta_epoch": "2025-12-24T07:41:05.368128",
        "meta_mean_motion": 1.86230801,
        "meta_eccentricity": 0.00114872,
        "meta_inclination": 56.388,
        "meta_ra_of_asc_node": 68.6832,
        "meta_arg_of_pericenter": 343.1884,
        "meta_mean_anomaly": 16.8281,
        "meta_ephemeris_type": 0,
        "meta_classification_type": "U",
        "meta_norad_cat_id": 38775,
        "meta_element_set_no": 999,
        "meta_rev_at_epoch": 9005,
        "meta_bstar": 0,
        "meta_mean_motion_dot": -2.4e-07,
        "meta_mean_motion_ddot": 0,
        "tle_line1": "1 38775U 12050B   25358.32020102 -.00000024  00000+0  00000+0 0  9996",
        "tle_line2": "2 38775  56.3880  68.6832 0011487 343.1884  16.8281  1.86230801 90056"
      },
      "geometry": {
        "type": "Point",
        "coordinates": [
          -40.55300256013424,
          -54.882429901773946
        ]
      }
    },
    {
      "type": "Feature",
      "properties": {
        "norad_id": 38953,
        "name": "BEIDOU-2 G6 (C02)",
        "group": "beidou",
        "lat": 3.1524066413376035,
        "lon": 127.24455449927494,
        "alt_km": 35800.384066015715,
        "timestamp": "2025-12-26T20:30:46.173307+00:00",
        "meta_object_name": "BEIDOU-2 G6 (C02)",
        "meta_object_id": "2012-059A",
        "meta_epoch": "2025-12-25T22:54:51.748704",
        "meta_mean_motion": 1.00274748,
        "meta_eccentricity": 0.00078835,
        "meta_inclination": 3.9809,
        "meta_ra_of_asc_node": 75.381,
        "meta_arg_of_pericenter": 293.9359,
        "meta_mean_anomaly": 153.0475,
        "meta_ephemeris_type": 0,
        "meta_classification_type": "U",
        "meta_norad_cat_id": 38953,
        "meta_element_set_no": 999,
        "meta_rev_at_epoch": 4817,
        "meta_bstar": 0,
        "meta_mean_motion_dot": -1.55e-06,
        "meta_mean_motion_ddot": 0,
        "tle_line1": "1 38953U 12059A   25359.95476561 -.00000155  00000+0  00000+0 0  9992",
        "tle_line2": "2 38953   3.9809  75.3810 0007883 293.9359 153.0475  1.00274748 48177"
      },
      "geometry": {
        "type": "Point",
        "coordinates": [
          127.24455449927494,
          3.1524066413376035
        ]
      }
    },
    {
      "type": "Feature",
      "properties": {
        "norad_id": 40549,
        "name": "BEIDOU-3S IGSO-1S (C31)",
        "group": "beidou",
        "lat": -15.58595657873447,
        "lon": 131.27727712267713,
        "alt_km": 35630.53723184262,
        "timestamp": "2025-12-26T20:30:46.173317+00:00",
        "meta_object_name": "BEIDOU-3S IGSO-1S (C31)",
        "meta_object_id": "2015-019A",
        "meta_epoch": "2025-12-26T15:52:50.904192",
        "meta_mean_motion": 1.00290025,
        "meta_eccentricity": 0.00365409,
        "meta_inclination": 49.5255,
        "meta_ra_of_asc_node": 297.5472,
        "meta_arg_of_pericenter": 194.2195,
        "meta_mean_anomaly": 296.7012,
        "meta_ephemeris_type": 0,
        "meta_classification_type": "U",
        "meta_norad_cat_id": 40549,
        "meta_element_set_no": 999,
        "meta_rev_at_epoch": 3934,
        "meta_bstar": 0,
        "meta_mean_motion_dot": -1.8e-06,
        "meta_mean_motion_ddot": 0,
        "tle_line1": "1 40549U 15019A   25360.66170028 -.00000180  00000+0  00000+0 0  9992",
        "tle_line2": "2 40549  49.5255 297.5472 0036540 194.2195 296.7012  1.00290025 39344"
      },
      "geometry": {
        "type": "Point",
        "coordinates": [
          131.27727712267713,
          -15.58595657873447
        ]
      }
    },
    {
      "type": "Feature",
      "properties": {
        "norad_id": 40748,
        "name": "BEIDOU-3S M2S (C58)",
        "group": "beidou",
        "lat": -51.27767959982448,
        "lon": -112.74426833782557,
        "alt_km": 21502.22513431477,
        "timestamp": "2025-12-26T20:30:46.173328+00:00",
        "meta_object_name": "BEIDOU-3S M2S (C58)",
        "meta_object_id": "2015-037A",
        "meta_epoch": "2025-12-24T19:32:44.901312",
        "meta_mean_motion": 1.86229543,
        "meta_eccentricity": 0.00118109,
        "meta_inclination": 55.028,
        "meta_ra_of_asc_node": 308.0499,
        "meta_arg_of_pericenter": 271.2412,
        "meta_mean_anomaly": 88.6304,
        "meta_ephemeris_type": 0,
        "meta_classification_type": "U",
        "meta_norad_cat_id": 40748,
        "meta_element_set_no": 999,
        "meta_rev_at_epoch": 7087,
        "meta_bstar": 0,
        "meta_mean_motion_dot": -5.3e-07,
        "meta_mean_motion_ddot": 0,
        "tle_line1": "1 40748U 15037A   25358.81440858 -.00000053  00000+0  00000+0 0  9997",
        "tle_line2": "2 40748  55.0280 308.0499 0011810 271.2412  88.6304  1.86229543 70879"
      },
      "geometry": {
        "type": "Point",
        "coordinates": [
          -112.74426833782557,
          -51.27767959982448
        ]
      }
    },
    {
      "type": "Feature",
      "properties": {
        "norad_id": 40749,
        "name": "BEIDOU-3S M1S (C57)",
        "group": "beidou",
        "lat": 35.486828591357735,
        "lon": 98.04432993089381,
        "alt_km": 21528.388616711134,
        "timestamp": "2025-12-26T20:30:46.173339+00:00",
        "meta_object_name": "BEIDOU-3S M1S (C57)",
        "meta_object_id": "2015-037B",
        "meta_epoch": "2025-12-26T02:48:07.376256",
        "meta_mean_motion": 1.86253839,
        "meta_eccentricity": 0.00037251,
        "meta_inclination": 55.0231,
        "meta_ra_of_asc_node": 307.9941,
        "meta_arg_of_pericenter": 3.0016,
        "meta_mean_anomaly": 357.0085,
        "meta_ephemeris_type": 0,
        "meta_classification_type": "U",
        "meta_norad_cat_id": 40749,
        "meta_element_set_no": 999,
        "meta_rev_at_epoch": 7090,
        "meta_bstar": 0,
        "meta_mean_motion_dot": -5.5e-07,
        "meta_mean_motion_ddot": 0,
        "tle_line1": "1 40749U 15037B   25360.11675204 -.00000055  00000+0  00000+0 0  9991",
        "tle_line2": "2 40749  55.0231 307.9941 0003725   3.0016 357.0085  1.86253839 70901"
      },
      "geometry": {
        "type": "Point",
        "coordinates": [
          98.04432993089381,
          35.486828591357735
        ]
      }
    }
  ]
}